IRIDIUM 136             
1 42962U 17061H   23306.82016778  .00000485  00000+0  16613-3 0  9997
2 42962  86.3971  65.3356 0001808  87.7469 272.3934 14.34214468317610
